{
    "links": {
        "self": "http://www.neowsapp.com/rest/v1/neo/3698568?api_key=iIulBulltgU6a56xZRHN4H3l9WmuAYTsLGpBGhQ2"
    },
    "id": "3698568",
    "neo_reference_id": "3698568",
    "name": "(2014 JW79)",
    "designation": "2014 JW79",
    "nasa_jpl_url": "http://ssd.jpl.nasa.gov/sbdb.cgi?sstr=3698568",
    "absolute_magnitude_h": 26.6,
    "estimated_diameter": {
        "kilometers": {
            "estimated_diameter_min": 0.0127219879,
            "estimated_diameter_max": 0.0284472297
        },
        "meters": {
            "estimated_diameter_min": 12.7219878539,
            "estimated_diameter_max": 28.4472296503
        },
        "miles": {
            "estimated_diameter_min": 0.0079050743,
            "estimated_diameter_max": 0.0176762835
        },
        "feet": {
            "estimated_diameter_min": 41.7388066307,
            "estimated_diameter_max": 93.330808926
        }
    },
    "is_potentially_hazardous_asteroid": false,
    "close_approach_data": [
        {
            "close_approach_date": "2014-05-12",
            "close_approach_date_full": "2014-May-12 16:27",
            "epoch_date_close_approach": 1399912020000,
            "relative_velocity": {
                "kilometers_per_second": "11.8951835655",
                "kilometers_per_hour": "42822.6608357028",
                "miles_per_hour": "26608.3361176066"
            },
            "miss_distance": {
                "astronomical": "0.0189465963",
                "lunar": "7.3702259607",
                "kilometers": "2834370.450229881",
                "miles": "1761196.1300231178"
            },
            "orbiting_body": "Earth"
        }
    ],
    "orbital_data": {
        "orbit_id": "3",
        "orbit_determination_date": "2017-04-06 08:40:28",
        "first_observation_date": "2014-05-05",
        "last_observation_date": "2014-05-06",
        "data_arc_in_days": 1,
        "observations_used": 21,
        "orbit_uncertainty": "9",
        "minimum_orbit_intersection": ".0188553",
        "jupiter_tisserand_invariant": "5.566",
        "epoch_osculation": "2456783.5",
        "eccentricity": ".3696733733989195",
        "semi_major_axis": "1.103833043372587",
        "inclination": "5.256518173178165",
        "ascending_node_longitude": "40.3541023156643",
        "orbital_period": "423.597621364588",
        "perihelion_distance": ".6957753585598471",
        "perihelion_argument": "290.843777051978",
        "aphelion_distance": "1.511890728185327",
        "perihelion_time": "2456856.811394449753",
        "mean_anomaly": "297.6953489094417",
        "mean_motion": ".8498631291655675",
        "equinox": "J2000",
        "orbit_class": {
            "orbit_class_type": "APO",
            "orbit_class_description": "Near-Earth asteroid orbits which cross the Earth’s orbit similar to that of 1862 Apollo",
            "orbit_class_range": "a (semi-major axis) > 1.0 AU; q (perihelion) < 1.017 AU"
        }
    },
    "is_sentry_object": false
}